TDRS 3                  
1 19548U 88091B   20115.10971465 -.00000297  00000-0  00000-0 0  9994
2 19548  14.2051 357.9052 0037394 325.3779 239.7270  1.00265970102895
HST                     
1 20580U 90037B   20115.87586627  .00000470  00000-0  17585-4 0  9993
2 20580  28.4702 314.0296 0002577 232.8853 257.2908 15.09375444447951
TDRS 5                  
1 21639U 91054B   20115.78617067  .00000089  00000-0  00000+0 0  9997
2 21639  14.3042  11.1845 0029156   4.9167 312.6561  1.00267208105205
TDRS 6                  
1 22314U 93003B   20115.37970403 -.00000290  00000-0  00000+0 0  9990
2 22314  14.0267  14.3166 0008421  50.3842 238.7167  1.00281214 99867
TDRS 7                  
1 23613U 95035B   20115.70465972 -.00000198  00000-0  00000-0 0  9995
2 23613  14.2081   5.0055 0033088  26.3291 160.3574  1.00274571 90746
ISS (ZARYA)             
1 25544U 98067A   20115.88656344  .00001440  00000-0  33926-4 0  9999
2 25544  51.6441 252.2668 0001631 181.2120 255.9079 15.49311353223751
LANDSAT 7               
1 25682U 99020A   20115.78458084  .00000015  00000-0  13103-4 0  9994
2 25682  98.0862 180.0309 0001590  68.4388 291.6974 14.57174789118428
TERRA                   
1 25994U 99068A   20115.81430051  .00000031  00000-0  16843-4 0  9992
2 25994  98.2147 190.8382 0001043  95.4025 264.7270 14.57125848 82504
TDRS 8                  
1 26388U 00034A   20115.80695208 -.00000225  00000-0  00000-0 0  9991
2 26388   9.1505  47.9131 0020006 318.8358 225.9159  1.00280453 72676
TIMED                   
1 26998U 01055B   20115.81999089  .00000097  00000-0  14604-4 0  9992
2 26998  74.0743  39.9645 0001127 210.0660 150.0456 14.88184212996513
TDRS 9                  
1 27389U 02011A   20115.77685571 -.00000278  00000-0  00000+0 0  9995
2 27389   7.3826  67.9135 0026467 283.5390  79.1239  1.00266742 67937
AQUA                    
1 27424U 02022A   20115.84801521  .00000088  00000-0  29534-4 0  9996
2 27424  98.2058  57.2606 0002294 117.5798 316.7299 14.57117194956113
TDRS 10                 
1 27566U 02055A   20115.78442125  .00000097  00000-0  00000+0 0  9995
2 27566   6.8159  53.8677 0010014 306.2042 324.3836  1.00270650 63724
SORCE                   
1 27651U 03004A   20115.78789437  .00000056  00000-0  19984-4 0  9996
2 27651  39.9953 269.3028 0023230 358.3167   1.7540 14.89105028936197
AURA                    
1 28376U 04026A   20115.83935945  .00000097  00000-0  31575-4 0  9994
2 28376  98.2051  59.4092 0001588  85.4331 274.7049 14.57119146839112
SWIFT                   
1 28485U 04047A   20115.86564700  .00000865  00000-0  28670-4 0  9993
2 28485  20.5576  40.0143 0011337  99.6391 260.5324 15.04594816845392
THEMIS A                
1 30580U 07004A   20115.01413665 -.00000441  00000-0  00000-0 0  9992
2 30580  13.9463  51.5892 8414692  19.9598 358.4628  0.87837899 21568
THEMIS D                
1 30797U 07004D   20115.04122644 -.00000433  00000-0  13571-1 0  9998
2 30797  12.5705  31.4281 8372837  41.8391 357.1755  0.87904651 45755
THEMIS E                
1 30798U 07004E   20115.07055739 -.00000438  00000-0  00000-0 0  9999
2 30798  11.5064  41.9825 8373522  33.9628 357.6370  0.87843832 46189
AIM                     
1 31304U 07015A   20115.69034646  .00000680  00000-0  41921-4 0  9996
2 31304  97.9144 356.4450 0005207 165.5871 194.5509 15.13529640712550
FGRST (GLAST)           
1 33053U 08029A   20115.36650253  .00000465  00000-0  97804-5 0  9990
2 33053  25.5822 108.6993 0012663 101.0455 259.1505 15.11329292655121
WISE                    
1 36119U 09071A   20115.84482365  .00000696  00000-0  26493-4 0  9995
2 36119  97.3341 152.8093 0002126 172.5475 187.5798 15.30039458575605
TDRS 11                 
1 39070U 13004A   20115.87202094  .00000079  00000-0  00000-0 0  9994
2 39070   3.9102 331.8737 0005929  40.4610 340.4948  1.00271387 26489
TDRS 12                 
1 39504U 14004A   20115.42215451 -.00000272  00000-0  00000-0 0  9995
2 39504   4.7237 338.1116 0002019 113.7383 231.8756  1.00265109 21769
GPM-CORE                
1 39574U 14009C   20115.79128436  .00002116  00000-0  34967-4 0  9994
2 39574  65.0065 334.1397 0011672 288.4484  71.5393 15.55596405349691
MMS 1                   
1 40482U 15011A   20111.32331903 -.00000001  00000-0  00000+0 0  9996
2 40482  26.7581 120.3298 8686940  19.8710 219.2124  0.28580409 11044
MMS 2                   
1 40483U 15011B   20110.08333333 -.00000059  00000-0  00000+0 0  9991
2 40483  26.7644 120.3695 8692042  19.8261  91.7200  0.28585787 11027
MMS 3                   
1 40484U 15011C   20110.08333333 -.00000059  00000-0  00000+0 0  9992
2 40484  26.7831 120.3608 8694015  19.8320  91.6985  0.28587107 11025
MMS 4                   
1 40485U 15011D   20110.53798178 -.00000033  00000-0  00000+0 0  9997
2 40485  26.7560 120.3506 8688751  19.8407 138.4632  0.28592214 11022
TDRS 13                 
1 42915U 17047A   20115.82546240 -.00000101  00000-0  00000-0 0  9993
2 42915   5.6589 330.2014 0017022  87.9454  80.9627  1.00273048  9846
JPSS-1                  
1 43013U 17073A   20115.78743098  .00000006  00000-0  23523-4 0  9999
2 43013  98.7146  54.5761 0001427  98.7711 261.3627 14.19552071126048
